{
  "type": "FeatureCollection",
  "features": [
    {
      "type": "Feature",
      "properties": {
        "norad_id": 31674,
        "name": "FENGYUN 1C DEB",
        "group": "fengyun-1c-debris",
        "lat": 39.864849775203965,
        "lon": -146.82837465947966,
        "alt_km": 729.0507958953222,
        "timestamp": "2025-12-15T04:01:20.735332+00:00",
        "meta_object_name": "FENGYUN 1C DEB",
        "meta_object_id": "1999-025CCG",
        "meta_epoch": "2025-12-13T08:22:41.288736",
        "meta_mean_motion": 14.51898371,
        "meta_eccentricity": 0.00245296,
        "meta_inclination": 98.9271,
        "meta_ra_of_asc_node": 23.6977,
        "meta_arg_of_pericenter": 283.0271,
        "meta_mean_anomaly": 76.8184,
        "meta_ephemeris_type": 0,
        "meta_classification_type": "U",
        "meta_norad_cat_id": 31674,
        "meta_element_set_no": 999,
        "meta_rev_at_epoch": 64623,
        "meta_bstar": 0.0046279629,
        "meta_mean_motion_dot": 0.00018727,
        "meta_mean_motion_ddot": 0,
        "tle_line1": "1 31674U 99025CCG 25347.34908899  .00018727  00000+0  46280-2 0  9993",
        "tle_line2": "2 31674  98.9271  23.6977 0024529 283.0271  76.8184 14.51898371646230"
      },
      "geometry": {
        "type": "Point",
        "coordinates": [
          -146.82837465947966,
          39.864849775203965
        ]
      }
    },
    {
      "type": "Feature",
      "properties": {
        "norad_id": 31678,
        "name": "FENGYUN 1C DEB",
        "group": "fengyun-1c-debris",
        "lat": 65.90770134209833,
        "lon": -61.26510177209585,
        "alt_km": 710.221789111627,
        "timestamp": "2025-12-15T04:01:20.735343+00:00",
        "meta_object_name": "FENGYUN 1C DEB",
        "meta_object_id": "1999-025CCL",
        "meta_epoch": "2025-12-13T13:31:08.844384",
        "meta_mean_motion": 14.53199849,
        "meta_eccentricity": 0.02590257,
        "meta_inclination": 98.7988,
        "meta_ra_of_asc_node": 96.7834,
        "meta_arg_of_pericenter": 25.3815,
        "meta_mean_anomaly": 335.9844,
        "meta_ephemeris_type": 0,
        "meta_classification_type": "U",
        "meta_norad_cat_id": 31678,
        "meta_element_set_no": 999,
        "meta_rev_at_epoch": 96851,
        "meta_bstar": 0.0010475953,
        "meta_mean_motion_dot": 6.72e-05,
        "meta_mean_motion_ddot": 0,
        "tle_line1": "1 31678U 99025CCL 25347.56329681  .00006720  00000+0  10476-2 0  9995",
        "tle_line2": "2 31678  98.7988  96.7834 0259025  25.3815 335.9844 14.53199849968518"
      },
      "geometry": {
        "type": "Point",
        "coordinates": [
          -61.26510177209585,
          65.90770134209833
        ]
      }
    },
    {
      "type": "Feature",
      "properties": {
        "norad_id": 31680,
        "name": "FENGYUN 1C DEB",
        "group": "fengyun-1c-debris",
        "lat": -46.86790916283197,
        "lon": 108.11026435612422,
        "alt_km": 454.964457844344,
        "timestamp": "2025-12-15T04:01:20.735355+00:00",
        "meta_object_name": "FENGYUN 1C DEB",
        "meta_object_id": "1999-025CCN",
        "meta_epoch": "2025-12-14T03:01:19.773984",
        "meta_mean_motion": 15.24213704,
        "meta_eccentricity": 0.00751957,
        "meta_inclination": 99.8358,
        "meta_ra_of_asc_node": 96.0737,
        "meta_arg_of_pericenter": 285.5725,
        "meta_mean_anomaly": 73.7213,
        "meta_ephemeris_type": 0,
        "meta_classification_type": "U",
        "meta_norad_cat_id": 31680,
        "meta_element_set_no": 999,
        "meta_rev_at_epoch": 193,
        "meta_bstar": 0.0012487948,
        "meta_mean_motion_dot": 0.00032988,
        "meta_mean_motion_ddot": 0,
        "tle_line1": "1 31680U 99025CCN 25348.12592331  .00032988  00000+0  12488-2 0  9995",
        "tle_line2": "2 31680  99.8358  96.0737 0075195 285.5725  73.7213 15.24213704  1930"
      },
      "geometry": {
        "type": "Point",
        "coordinates": [
          108.11026435612422,
          -46.86790916283197
        ]
      }
    },
    {
      "type": "Feature",
      "properties": {
        "norad_id": 31685,
        "name": "FENGYUN 1C DEB",
        "group": "fengyun-1c-debris",
        "lat": -22.65144813671878,
        "lon": -170.36189544743164,
        "alt_km": 854.7803579355696,
        "timestamp": "2025-12-15T04:01:20.735365+00:00",
        "meta_object_name": "FENGYUN 1C DEB",
        "meta_object_id": "1999-025CCT",
        "meta_epoch": "2025-12-13T08:28:30.695520",
        "meta_mean_motion": 14.09658679,
        "meta_eccentricity": 0.00159201,
        "meta_inclination": 98.7311,
        "meta_ra_of_asc_node": 11.5554,
        "meta_arg_of_pericenter": 223.8569,
        "meta_mean_anomaly": 136.1339,
        "meta_ephemeris_type": 0,
        "meta_classification_type": "U",
        "meta_norad_cat_id": 31685,
        "meta_element_set_no": 999,
        "meta_rev_at_epoch": 95098,
        "meta_bstar": 0.0001912622,
        "meta_mean_motion_dot": 2.93e-06,
        "meta_mean_motion_ddot": 0,
        "tle_line1": "1 31685U 99025CCT 25347.35313305  .00000293  00000+0  19126-3 0  9997",
        "tle_line2": "2 31685  98.7311  11.5554 0015920 223.8569 136.1339 14.09658679950989"
      },
      "geometry": {
        "type": "Point",
        "coordinates": [
          -170.36189544743164,
          -22.65144813671878
        ]
      }
    },
    {
      "type": "Feature",
      "properties": {
        "norad_id": 31686,
        "name": "FENGYUN 1C DEB",
        "group": "fengyun-1c-debris",
        "lat": 20.930993341696496,
        "lon": -116.09248474345962,
        "alt_km": 604.0302911396839,
        "timestamp": "2025-12-15T04:01:20.735375+00:00",
        "meta_object_name": "FENGYUN 1C DEB",
        "meta_object_id": "1999-025CCU",
        "meta_epoch": "2025-12-10T10:46:20.455104",
        "meta_mean_motion": 14.72037597,
        "meta_eccentricity": 0.02837956,
        "meta_inclination": 98.1518,
        "meta_ra_of_asc_node": 56.0281,
        "meta_arg_of_pericenter": 96.7417,
        "meta_mean_anomaly": 266.6169,
        "meta_ephemeris_type": 0,
        "meta_classification_type": "U",
        "meta_norad_cat_id": 31686,
        "meta_element_set_no": 999,
        "meta_rev_at_epoch": 97785,
        "meta_bstar": 0.0010577833,
        "meta_mean_motion_dot": 0.00012579,
        "meta_mean_motion_ddot": 0,
        "tle_line1": "1 31686U 99025CCU 25344.44884786  .00012579  00000+0  10578-2 0  9992",
        "tle_line2": "2 31686  98.1518  56.0281 0283795  96.7417 266.6169 14.72037597977855"
      },
      "geometry": {
        "type": "Point",
        "coordinates": [
          -116.09248474345962,
          20.930993341696496
        ]
      }
    },
    {
      "type": "Feature",
      "properties": {
        "norad_id": 31688,
        "name": "FENGYUN 1C DEB",
        "group": "fengyun-1c-debris",
        "lat": -79.85214379990589,
        "lon": 161.328556625985,
        "alt_km": 928.712762826749,
        "timestamp": "2025-12-15T04:01:20.735388+00:00",
        "meta_object_name": "FENGYUN 1C DEB",
        "meta_object_id": "1999-025CCW",
        "meta_epoch": "2025-12-13T09:40:10.991136",
        "meta_mean_motion": 14.02316125,
        "meta_eccentricity": 0.00755322,
        "meta_inclination": 98.9648,
        "meta_ra_of_asc_node": 41.4674,
        "meta_arg_of_pericenter": 139.3335,
        "meta_mean_anomaly": 221.3505,
        "meta_ephemeris_type": 0,
        "meta_classification_type": "U",
        "meta_norad_cat_id": 31688,
        "meta_element_set_no": 999,
        "meta_rev_at_epoch": 95287,
        "meta_bstar": 2.2550731e-05,
        "meta_mean_motion_dot": -8e-08,
        "meta_mean_motion_ddot": 0,
        "tle_line1": "1 31688U 99025CCW 25347.40290499 -.00000008  00000+0  22551-4 0  9996",
        "tle_line2": "2 31688  98.9648  41.4674 0075532 139.3335 221.3505 14.02316125952871"
      },
      "geometry": {
        "type": "Point",
        "coordinates": [
          161.328556625985,
          -79.85214379990589
        ]
      }
    },
    {
      "type": "Feature",
      "properties": {
        "norad_id": 31691,
        "name": "FENGYUN 1C DEB",
        "group": "fengyun-1c-debris",
        "lat": -58.94587615701395,
        "lon": 90.68162867557588,
        "alt_km": 794.8212681778869,
        "timestamp": "2025-12-15T04:01:20.735398+00:00",
        "meta_object_name": "FENGYUN 1C DEB",
        "meta_object_id": "1999-025CCZ",
        "meta_epoch": "2025-12-12T12:19:12.535392",
        "meta_mean_motion": 14.26139263,
        "meta_eccentricity": 0.00611137,
        "meta_inclination": 98.881,
        "meta_ra_of_asc_node": 72.9414,
        "meta_arg_of_pericenter": 239.7634,
        "meta_mean_anomaly": 119.7486,
        "meta_ephemeris_type": 0,
        "meta_classification_type": "U",
        "meta_norad_cat_id": 31691,
        "meta_element_set_no": 999,
        "meta_rev_at_epoch": 64108,
        "meta_bstar": 0.0035356607,
        "meta_mean_motion_dot": 8.591e-05,
        "meta_mean_motion_ddot": 0,
        "tle_line1": "1 31691U 99025CCZ 25346.51333953  .00008591  00000+0  35357-2 0  9994",
        "tle_line2": "2 31691  98.8810  72.9414 0061113 239.7634 119.7486 14.26139263641081"
      },
      "geometry": {
        "type": "Point",
        "coordinates": [
          90.68162867557588,
          -58.94587615701395
        ]
      }
    }
  ]
}